OBJECT_NAME,OBJECT_ID,EPOCH,MEAN_MOTION,ECCENTRICITY,INCLINATION,RA_OF_ASC_NODE,ARG_OF_PERICENTER,MEAN_ANOMALY,EPHEMERIS_TYPE,CLASSIFICATION_TYPE,NORAD_CAT_ID,ELEMENT_SET_NO,REV_AT_EPOCH,BSTAR,MEAN_MOTION_DOT,MEAN_MOTION_DDOT
SHIJIAN-20 (SJ-20),2019-097A,2026-07-23T20:02:24.436320,1.00274185,.0015702,5.0092,74.6113,58.4166,153.9176,0,U,44910,999,2406,0,.136E-5,0
TJS-5,2020-002A,2026-07-24T06:36:17.107200,1.00270322,.0008161,0.0863,80.5737,338.3203,89.6661,0,U,44978,999,2408,0,-.337E-5,0
GSAT-30,2020-005A,2026-07-24T03:35:38.694624,1.00272666,.00034073,0.0060,8.5524,84.8292,345.4204,0,U,45026,999,2387,0,-.16E-5,0
EUTELSAT KONNECT,2020-005B,2026-07-24T06:07:34.857984,1.00269834,.00018102,0.0670,94.8572,131.8148,174.3931,0,U,45027,999,2470,0,.54E-6,0
JCSAT-17,2020-013A,2026-07-24T06:44:23.828640,1.00271741,.00034642,5.3923,357.2146,134.4439,47.4608,0,U,45245,999,2360,0,-.306E-5,0
GEO-KOMPSAT-2B,2020-013B,2026-07-23T13:00:38.746368,1.00270919,.0000462,0.0508,247.9902,283.3962,93.3006,0,U,45246,999,2364,0,-.339E-5,0
BEIDOU-3 G2,2020-017A,2026-07-24T02:44:38.740128,1.00272742,.00021601,2.9375,47.8589,59.2772,315.8991,0,U,45344,999,2363,0,-.138E-5,0
AEHF-6 (USA 298),2020-022B,2026-07-24T06:44:46.292640,1.00268659,.00416058,2.4691,301.6447,15.4717,223.7867,0,U,45465,999,2338,0,-.29E-5,0
BEIDOU-3 G3,2020-040A,2026-07-24T06:37:09.522624,1.00272711,.00022594,2.5361,67.5023,318.7268,125.6152,0,U,45807,999,2244,0,-.351E-5,0
APSTAR-6D,2020-045A,2026-07-23T23:53:09.041856,1.00269880,.00024891,0.0423,95.7080,351.9142,346.4029,0,U,45863,999,2222,0,-.313E-5,0
KOREASAT 116,2020-048A,2026-07-24T06:38:39.378624,1.00272409,.00011582,0.0044,12.0106,112.5657,33.2809,0,U,45920,999,2201,0,-.357E-5,0
EXPRESS 103,2020-053A,2026-07-24T03:47:21.632064,1.00271549,.00004613,0.0350,252.8130,157.7261,44.6764,0,U,45985,999,2202,0,-.275E-5,0
EXPRESS 80,2020-053B,2026-07-23T22:33:26.559936,1.00278491,.00013734,0.0185,275.6404,175.6849,268.6794,0,U,45986,999,2199,0,-.132E-5,0
BSAT-4B,2020-056A,2026-07-24T05:49:38.649216,1.00271843,.00046072,0.0437,207.4715,282.8038,8.9269,0,U,46112,999,2176,0,-.345E-5,0
MEV-2,2020-056B,2026-07-24T01:35:38.535936,1.00272480,.00002297,0.0605,253.0695,247.3872,184.2447,0,U,46113,999,8107,0,-.6E-7,0
GALAXY 30 (G-30),2020-056C,2026-07-24T05:23:22.322688,1.00270186,.00024257,0.0239,56.9335,66.5104,134.3396,0,U,46114,999,2166,0,0,0
GAOFEN-13 01,2020-071A,2026-07-24T05:33:38.793600,1.00273931,.00444434,0.4907,86.0288,119.8206,297.7745,0,U,46610,999,2129,0,-.358E-5,0
TIANTONG-1 2,2020-082A,2026-07-23T20:25:14.746368,1.00269903,.00014845,0.7488,333.0684,138.9290,260.8180,0,U,46916,999,2102,0,-.35E-5,0
LUCAS (JDRS-1),2020-089A,2026-07-24T03:57:21.608352,1.00272256,.00020835,0.0572,266.5924,194.8249,350.6081,0,U,47202,999,2079,0,-.23E-5,0
SXM-7,2020-096A,2026-07-23T00:36:11.951712,1.00270895,.00037975,0.0257,101.0036,15.4311,108.2161,0,U,47240,999,780,0,-.201E-5,0
CMS-01,2020-099A,2026-07-24T03:35:38.694624,1.00272674,.00033525,0.0136,84.6270,182.1077,172.0572,0,U,47256,999,2056,0,-.16E-5,0
TURKSAT 5A,2021-001A,2026-07-23T13:07:53.313312,1.00272488,.0000199,0.0160,76.3925,347.1661,105.6038,0,U,47306,999,2033,0,.159E-5,0
TIANTONG-1 3,2021-003A,2026-07-24T01:20:49.604352,1.00274016,.0003238,1.7297,341.8004,145.8258,275.8661,0,U,47321,999,2033,0,-.147E-5,0
TJS-6,2021-010A,2026-07-24T07:37:38.523072,1.00269219,.00029602,0.1560,260.9110,239.1352,94.9139,0,U,47613,999,2018,0,.48E-6,0
SBIRS GEO-5 (USA 315),2021-042A,2026-07-23T21:59:01.547232,1.00272004,.00018457,5.0582,329.3993,154.5315,241.2682,0,U,48618,999,1914,0,-.257E-5,0
FENGYUN 4B,2021-047A,2026-07-23T20:19:30.296352,1.00276101,.00068274,0.2413,80.3983,274.9939,355.7258,0,U,48808,999,1893,0,-.326E-5,0
SXM-8,2021-049A,2026-07-23T07:45:25.426080,1.00272732,.0005949,0.0170,52.3766,343.2428,296.6432,0,U,48838,999,1894,0,-.201E-5,0
TIANLIAN 1-05,2021-063A,2026-07-24T06:10:19.595136,1.00270964,.0001377,1.6864,80.3840,83.8754,247.1079,0,U,49011,999,1844,0,.111E-5,0
STAR ONE D2,2021-069A,2026-07-24T00:37:38.642880,1.00269703,.0002414,0.0080,39.1054,104.7790,97.2103,0,U,49055,999,1831,0,0,0
EUTELSAT QUANTUM,2021-069B,2026-07-24T05:12:38.616768,1.00270034,.00025462,0.0325,296.0264,183.5799,308.1895,0,U,49056,999,1829,0,.131E-5,0
ZHONGXING-2E,2021-071A,2026-07-24T03:42:21.863808,1.00271029,.00013875,0.0425,227.4967,272.8776,315.1656,0,U,49062,999,1841,0,-.286E-5,0
TJS-7,2021-077A,2026-07-24T05:37:15.265344,1.00273476,.00030064,0.2613,263.5689,121.2947,261.9231,0,U,49115,999,992,0,-.119E-5,0
