{"epoch":1784902576,"count":18312,"objects":[{"id":"44910","name":"SJ-20","type":"PAYLOAD","l1":"1 44910U 19097A   26204.83500505  .00000136  00000-0  00000+0 0  9993","l2":"2 44910   5.0092  74.6113 0015702  58.4166 153.9176  1.00274185 24065"},{"id":"44978","name":"TJS-5","type":"PAYLOAD","l1":"1 44978U 20002A   26205.27519800 -.00000337  00000-0  00000+0 0  9996","l2":"2 44978   0.0863  80.5737 0008161 338.3203  89.6661  1.00270322 24086"},{"id":"45026","name":"GSAT 30","type":"PAYLOAD","l1":"1 45026U 20005A   26205.14975341 -.00000160  00000-0  00000-0 0  9991","l2":"2 45026   0.0060   8.5524 0003407  84.8292 345.4204  1.00272666 23878"},{"id":"45027","name":"EUTE KONNECT","type":"PAYLOAD","l1":"1 45027U 20005B   26205.25526456  .00000054  00000-0  00000-0 0  9994","l2":"2 45027   0.0670  94.8572 0001810 131.8148 174.3931  1.00269834 24708"},{"id":"45245","name":"JCSAT 17","type":"PAYLOAD","l1":"1 45245U 20013A   26205.28083135 -.00000306  00000-0  00000-0 0  9991","l2":"2 45245   5.3923 357.2146 0003464 134.4439  47.4608  1.00271741 23600"},{"id":"45246","name":"GEO-KOMPSAT-2B","type":"PAYLOAD","l1":"1 45246U 20013B   26204.54211512 -.00000339  00000-0  00000+0 0  9997","l2":"2 45246   0.0508 247.9902 0000462 283.3962  93.3006  1.00270919 23649"},{"id":"45344","name":"BEIDOU 3 G2","type":"PAYLOAD","l1":"1 45344U 20017A   26205.11433727 -.00000138  00000-0  00000-0 0  9996","l2":"2 45344   2.9375  47.8589 0002160  59.2772 315.8991  1.00272742 23635"},{"id":"45465","name":"AEHF 6 (USA 298)","type":"PAYLOAD","l1":"1 45465U 20022B   26205.28109135 -.00000290  00000-0  00000-0 0  9996","l2":"2 45465   2.4691 301.6447 0041606  15.4717 223.7867  1.00268659 23383"},{"id":"45807","name":"BEIDOU 3 G3","type":"PAYLOAD","l1":"1 45807U 20040A   26205.27580466 -.00000351  00000-0  00000-0 0  9993","l2":"2 45807   2.5361  67.5023 0002259 318.7268 125.6152  1.00272711 22444"},{"id":"45863","name":"APSTAR 6D","type":"PAYLOAD","l1":"1 45863U 20045A   26204.99524354 -.00000313  00000-0  00000-0 0  9990","l2":"2 45863   0.0423  95.7080 0002489 351.9142 346.4029  1.00269880 22224"},{"id":"45920","name":"KOREASAT 116","type":"PAYLOAD","l1":"1 45920U 20048A   26205.27684466 -.00000357  00000-0  00000-0 0  9998","l2":"2 45920   0.0044  12.0106 0001158 112.5657  33.2809  1.00272409 22017"},{"id":"45985","name":"EXPRESS 103","type":"PAYLOAD","l1":"1 45985U 20053A   26205.15788926 -.00000275  00000-0  00000-0 0  9997","l2":"2 45985   0.0350 252.8130 0000461 157.7261  44.6764  1.00271549 22028"},{"id":"45986","name":"EXPRESS 80","type":"PAYLOAD","l1":"1 45986U 20053B   26204.93989074 -.00000132  00000-0  00000-0 0  9992","l2":"2 45986   0.0185 275.6404 0001373 175.6849 268.6794  1.00278491 21995"},{"id":"46112","name":"BSAT-4B","type":"PAYLOAD","l1":"1 46112U 20056A   26205.24280844 -.00000345  00000-0  00000-0 0  9997","l2":"2 46112   0.0437 207.4715 0004607 282.8038   8.9269  1.00271843 21760"},{"id":"46113","name":"MEV-2","type":"PAYLOAD","l1":"1 46113U 20056B   26205.06641824 -.00000006  00000-0  00000-0 0  9991","l2":"2 46113   0.0605 253.0695 0000230 247.3872 184.2447  1.00272480 81076"},{"id":"46114","name":"GALAXY 30","type":"PAYLOAD","l1":"1 46114U 20056C   26205.22456392  .00000000  00000-0  00000-0 0  9997","l2":"2 46114   0.0239  56.9335 0002426  66.5104 134.3396  1.00270186 21668"},{"id":"46610","name":"GAOFEN 13","type":"PAYLOAD","l1":"1 46610U 20071A   26205.23169900 -.00000358  00000-0  00000-0 0  9999","l2":"2 46610   0.4907  86.0288 0044443 119.8206 297.7745  1.00273931 21298"},{"id":"46916","name":"TIANTONG-1 2","type":"PAYLOAD","l1":"1 46916U 20082A   26204.85086512 -.00000350  00000-0  00000-0 0  9996","l2":"2 46916   0.7488 333.0684 0001484 138.9290 260.8180  1.00269903 21021"},{"id":"47202","name":"LUCAS (JDRS-1)","type":"PAYLOAD","l1":"1 47202U 20089A   26205.16483343 -.00000230  00000-0  00000-0 0  9997","l2":"2 47202   0.0572 266.5924 0002083 194.8249 350.6081  1.00272256 20791"},{"id":"47240","name":"XM-7","type":"PAYLOAD","l1":"1 47240U 20096A   26204.02513833 -.00000201  00000-0  00000-0 0  9997","l2":"2 47240   0.0257 101.0036 0003798  15.4311 108.2161  1.00270895  7802"},{"id":"47256","name":"CMS-01","type":"PAYLOAD","l1":"1 47256U 20099A   26205.14975341 -.00000160  00000-0  00000-0 0  9991","l2":"2 47256   0.0136  84.6270 0003352 182.1077 172.0572  1.00272674 20568"},{"id":"47306","name":"TURKSAT 5A","type":"PAYLOAD","l1":"1 47306U 21001A   26204.54714483  .00000159  00000-0  00000+0 0  9998","l2":"2 47306   0.0160  76.3925 0000199 347.1661 105.6038  1.00272488 20331"},{"id":"47321","name":"TIANTONG-1 3","type":"PAYLOAD","l1":"1 47321U 21003A   26205.05612968 -.00000147  00000-0  00000+0 0  9997","l2":"2 47321   1.7297 341.8004 0003238 145.8258 275.8661  1.00274016 20338"},{"id":"47613","name":"TJS-6","type":"PAYLOAD","l1":"1 47613U 21010A   26205.31780698  .00000048  00000-0  00000-0 0  9994","l2":"2 47613   0.1560 260.9110 0002960 239.1352  94.9139  1.00269219 20182"},{"id":"48618","name":"SBIRS GEO 5 (USA 315)","type":"PAYLOAD","l1":"1 48618U 21042A   26204.91599013 -.00000257  00000-0  00000-0 0  9992","l2":"2 48618   5.0582 329.3993 0001846 154.5315 241.2682  1.00272004 19146"},{"id":"48808","name":"FENGYUN 4B","type":"PAYLOAD","l1":"1 48808U 21047A   26204.84687843 -.00000326  00000-0  00000-0 0  9996","l2":"2 48808   0.2413  80.3983 0006827 274.9939 355.7258  1.00276101 18931"},{"id":"48838","name":"XM-8","type":"PAYLOAD","l1":"1 48838U 21049A   26204.32321095 -.00000201  00000-0  00000+0 0  9999","l2":"2 48838   0.0170  52.3766 0005949 343.2428 296.6432  1.00272732 18941"},{"id":"49011","name":"TIANLIAN 1-O5","type":"PAYLOAD","l1":"1 49011U 21063A   26205.25717124  .00000111  00000-0  00000-0 0  9994","l2":"2 49011   1.6864  80.3840 0001377  83.8754 247.1079  1.00270964 18444"},{"id":"49055","name":"STARONE D2","type":"PAYLOAD","l1":"1 49055U 21069A   26205.02614170  .00000000  00000-0  00000-0 0  9997","l2":"2 49055   0.0080  39.1054 0002414 104.7790  97.2103  1.00269703 18317"},{"id":"49056","name":"EUTELSAT QUANTUM","type":"PAYLOAD","l1":"1 49056U 21069B   26205.21711362  .00000131  00000-0  00000-0 0  9995","l2":"2 49056   0.0325 296.0264 0002546 183.5799 308.1895  1.00270034 18295"},{"id":"49062","name":"CHINASAT 2E","type":"PAYLOAD","l1":"1 49062U 21071A   26205.15441972 -.00000286  00000-0  00000-0 0  9997","l2":"2 49062   0.0425 227.4967 0001388 272.8776 315.1656  1.00271029 18413"},{"id":"49115","name":"TJS-7","type":"PAYLOAD","l1":"1 49115U 21077A   26205.23420446 -.00000119  00000-0  00000-0 0  9999","l2":"2 49115   0.2613 263.5689 0003006 121.2947 261.9231  1.00273476  9922"}]}